{
  "norad_id": 62466,
  "name": "STARLINK-11506 [DTC]",
  "history": [
    {
      "epoch": "2026-03-28T22:41:20.937408Z",
      "apogee_km": 357.27436547782145,
      "perigee_km": 355.6340884385836,
      "latitude_deg": -2.4592375682520857e-05,
      "longitude_deg": -60.138111619281034,
      "height_km": 355.8517406529564,
      "semi_major_axis_km": 6734.591226958202,
      "eccentricity": 0.00012178,
      "inclination_deg": 42.999,
      "raan_deg": 106.5577,
      "arg_perigee_deg": 297.1782,
      "mean_anomaly_deg": 62.8961,
      "mean_motion_rev_day": 15.70854287
    },
    {
      "epoch": "2026-03-29T04:00:01.999584Z",
      "apogee_km": 357.5603775177442,
      "perigee_km": 355.3837518680357,
      "latitude_deg": 4.695214114055177,
      "longitude_deg": 33.617012928925206,
      "height_km": 355.914073642796,
      "semi_major_axis_km": 6734.60906469289,
      "eccentricity": 0.0001616,
      "inclination_deg": 43.0001,
      "raan_deg": 105.2264,
      "arg_perigee_deg": 271.4465,
      "mean_anomaly_deg": 261.634,
      "mean_motion_rev_day": 15.70848046
    },
    {
      "epoch": "2026-03-30T00:37:51.221856Z",
      "apogee_km": 357.44170377480714,
      "perigee_km": 354.5433344297862,
      "latitude_deg": 3.3297739000533597e-06,
      "longitude_deg": -96.84105616478585,
      "height_km": 356.1038078318972,
      "semi_major_axis_km": 6734.129519102296,
      "eccentricity": 0.0002152,
      "inclination_deg": 43.0015,
      "raan_deg": 100.0463,
      "arg_perigee_deg": 256.5045,
      "mean_anomaly_deg": 103.5583,
      "mean_motion_rev_day": 15.71015842
    },
    {
      "epoch": "2026-03-30T00:37:51.222720Z",
      "apogee_km": 357.4414344096267,
      "perigee_km": 354.54360379496666,
      "latitude_deg": 6.887925194637444e-05,
      "longitude_deg": -96.84098987987826,
      "height_km": 356.10373608222886,
      "semi_major_axis_km": 6734.129519102296,
      "eccentricity": 0.00021516,
      "inclination_deg": 43.0015,
      "raan_deg": 100.0463,
      "arg_perigee_deg": 256.5046,
      "mean_anomaly_deg": 103.5583,
      "mean_motion_rev_day": 15.71015842
    },
    {
      "epoch": "2026-03-30T09:47:13.600320Z",
      "apogee_km": 357.63581970348605,
      "perigee_km": 355.2897545216483,
      "latitude_deg": 2.332423770346656e-05,
      "longitude_deg": 123.13598955914138,
      "height_km": 356.68970216617254,
      "semi_major_axis_km": 6734.599787112567,
      "eccentricity": 0.00017418,
      "inclination_deg": 42.9988,
      "raan_deg": 97.7426,
      "arg_perigee_deg": 247.2033,
      "mean_anomaly_deg": 112.8651,
      "mean_motion_rev_day": 15.70851292
    },
    {
      "epoch": "2026-03-31T08:40:37.343712Z",
      "apogee_km": 357.53249082389357,
      "perigee_km": 355.2256496891878,
      "latitude_deg": 1.0654012161624953e-05,
      "longitude_deg": 133.0978904705118,
      "height_km": 356.48637829594566,
      "semi_major_axis_km": 6734.51607025654,
      "eccentricity": 0.00017127,
      "inclination_deg": 42.999,
      "raan_deg": 91.9935,
      "arg_perigee_deg": 253.1243,
      "mean_anomaly_deg": 106.9437,
      "mean_motion_rev_day": 15.70880583
    },
    {
      "epoch": "2026-04-01T16:43:23.804256Z",
      "apogee_km": 356.50978453249627,
      "perigee_km": 356.011439109222,
      "latitude_deg": -1.6050112431789428e-05,
      "longitude_deg": 3.0390858772424854,
      "height_km": 355.9843189221033,
      "semi_major_axis_km": 6734.397611820858,
      "eccentricity": 3.7e-05,
      "inclination_deg": 42.9992,
      "raan_deg": 83.9444,
      "arg_perigee_deg": 79.1335,
      "mean_anomaly_deg": 280.9574,
      "mean_motion_rev_day": 15.70922031
    },
    {
      "epoch": "2026-04-02T15:36:47.610720Z",
      "apogee_km": 358.0769839057475,
      "perigee_km": 354.583411702215,
      "latitude_deg": -1.3682362652443728e-06,
      "longitude_deg": 12.999352073114782,
      "height_km": 355.1070895793424,
      "semi_major_axis_km": 6734.467197803981,
      "eccentricity": 0.00025938,
      "inclination_deg": 42.9994,
      "raan_deg": 78.1939,
      "arg_perigee_deg": 55.4022,
      "mean_anomaly_deg": 304.709,
      "mean_motion_rev_day": 15.70897683
    },
    {
      "epoch": "2026-04-03T05:20:46.467456Z",
      "apogee_km": 357.5383707723786,
      "perigee_km": 354.2225405772042,
      "latitude_deg": -8.712050042590764e-06,
      "longitude_deg": 162.99161315252815,
      "height_km": 356.1221111480708,
      "semi_major_axis_km": 6734.017455674791,
      "eccentricity": 0.0002462,
      "inclination_deg": 42.9993,
      "raan_deg": 74.7454,
      "arg_perigee_deg": 253.5805,
      "mean_anomaly_deg": 106.4792,
      "mean_motion_rev_day": 15.71055058
    },
    {
      "epoch": "2026-04-04T07:17:19.975488Z",
      "apogee_km": 357.5702989911042,
      "perigee_km": 355.3828964945569,
      "latitude_deg": 6.614996249389419e-06,
      "longitude_deg": 126.27258593666292,
      "height_km": 356.1152179268089,
      "semi_major_axis_km": 6734.61359774283,
      "eccentricity": 0.0001624,
      "inclination_deg": 43.0018,
      "raan_deg": 68.2314,
      "arg_perigee_deg": 277.0493,
      "mean_anomaly_deg": 83.019,
      "mean_motion_rev_day": 15.7084646
    },
    {
      "epoch": "2026-04-05T07:42:18.365760Z",
      "apogee_km": 357.2478455961191,
      "perigee_km": 355.6594250488706,
      "latitude_deg": -4.326384326075457e-05,
      "longitude_deg": 112.89520020644562,
      "height_km": 356.05355488219845,
      "semi_major_axis_km": 6734.590635322495,
      "eccentricity": 0.00011793,
      "inclination_deg": 42.9995,
      "raan_deg": 62.1001,
      "arg_perigee_deg": 282.5288,
      "mean_anomaly_deg": 77.5447,
      "mean_motion_rev_day": 15.70854494
    },
    {
      "epoch": "2026-04-06T06:35:40.532352Z",
      "apogee_km": 357.9742424574506,
      "perigee_km": 353.0244810406548,
      "latitude_deg": -1.8574850477522043e-06,
      "longitude_deg": 122.86284368186377,
      "height_km": 355.47754748655984,
      "semi_major_axis_km": 6733.636361749052,
      "eccentricity": 0.00036754,
      "inclination_deg": 43.0005,
      "raan_deg": 56.3501,
      "arg_perigee_deg": 265.267,
      "mean_anomaly_deg": 94.7778,
      "mean_motion_rev_day": 15.71188432
    },
    {
      "epoch": "2026-04-07T05:29:04.856352Z",
      "apogee_km": 357.8118833892913,
      "perigee_km": 354.7057106718694,
      "latitude_deg": 5.714443138483231e-05,
      "longitude_deg": 132.82319152946323,
      "height_km": 356.14889979781043,
      "semi_major_axis_km": 6734.39579703058,
      "eccentricity": 0.00023062,
      "inclination_deg": 43.0031,
      "raan_deg": 50.6018,
      "arg_perigee_deg": 265.6929,
      "mean_anomaly_deg": 94.3676,
      "mean_motion_rev_day": 15.70922666
    },
    {
      "epoch": "2026-04-08T13:31:51.275424Z",
      "apogee_km": 357.07373168119557,
      "perigee_km": 355.69961947043066,
      "latitude_deg": -9.291056069250643e-06,
      "longitude_deg": 2.7649120909085365,
      "height_km": 355.8621133418054,
      "semi_major_axis_km": 6734.523675575813,
      "eccentricity": 0.00010202,
      "inclination_deg": 43.0,
      "raan_deg": 42.5531,
      "arg_perigee_deg": 64.595,
      "mean_anomaly_deg": 295.5023,
      "mean_motion_rev_day": 15.70877922
    }
  ]
}